HULIANWANG DIGUI-114    
1 66953U 25287A   25362.23094137  .00000040  00000+0  30360-4 0  9999
2 66953  86.4963 340.5326 0001699  77.9642 282.1703 13.62054323  2644
HULIANWANG DIGUI-115    
1 66954U 25287B   25362.30127108  .00000040  00000+0  30553-4 0  9997
2 66954  86.4760 340.5489 0003893  64.9296 295.2263 13.61926978  2659
HULIANWANG DIGUI-116    
1 66955U 25287C   25362.29720234  .00000185  00000+0  21733-3 0  9994
2 66955  86.4968 340.4874 0002763  86.1288 274.0183 13.62405302  2659
HULIANWANG DIGUI-117    
1 66956U 25287D   25358.91908891  .00000024  00000+0  90260-5 0  9991
2 66956  86.4976 341.7257 0001044 103.5815 256.5458 13.64670553  2192
HULIANWANG DIGUI-118    
1 66957U 25287E   25355.03488252  .00000128  00000+0  13223-3 0  9993
2 66957  86.4946 343.1304 0005472 170.9065 189.2194 13.67510110  1668
CZ-6A R/B               
1 66958U 25287F   25362.26885206  .00000146  00000+0  90491-4 0  9990
2 66958  86.5067 340.1971 0106970  55.4559 305.6655 13.94922298  2707
STARLINK-35887          
1 66959U 25288A   25362.25002315 -.01968858  00000+0 -35204-1 0  9997
2 66959  43.0003  73.1220 0001109 267.7449 319.7695 15.52328014  4322
STARLINK-35879          
1 66960U 25288B   25362.25002315 -.02039597  00000+0 -36576-1 0  9992
2 66960  43.0002  73.1169 0001401 273.2799 316.1438 15.52359752  4329
STARLINK-35761          
1 66961U 25288C   25362.25002315 -.01965851  00000+0 -35147-1 0  9996
2 66961  43.0002  73.1124 0001145 268.3076 323.0425 15.52325105  4327
STARLINK-35874          
1 66962U 25288D   25362.25002315 -.02047947  00000+0 -36733-1 0  9997
2 66962  43.0003  73.1072 0001532 271.3348 321.9207 15.52366145  4321
STARLINK-36133          
1 66963U 25288E   25362.25002315 -.02060088  00000+0 -36972-1 0  9994
2 66963  43.0003  73.1027 0001545 271.7906 323.3859 15.52370126  4323
STARLINK-36104          
1 66964U 25288F   25362.25002315 -.02073800  00000+0 -37234-1 0  9993
2 66964  43.0004  73.0975 0001547 275.7811 321.3067 15.52381051  4325
